{
    "links": {
        "self": "http://www.neowsapp.com/rest/v1/neo/3177191?api_key=iIulBulltgU6a56xZRHN4H3l9WmuAYTsLGpBGhQ2"
    },
    "id": "3177191",
    "neo_reference_id": "3177191",
    "name": "(2004 FA)",
    "designation": "2004 FA",
    "nasa_jpl_url": "http://ssd.jpl.nasa.gov/sbdb.cgi?sstr=3177191",
    "absolute_magnitude_h": 23.2,
    "estimated_diameter": {
        "kilometers": {
            "estimated_diameter_min": 0.0608912622,
            "estimated_diameter_max": 0.1361570015
        },
        "meters": {
            "estimated_diameter_min": 60.8912622106,
            "estimated_diameter_max": 136.1570015386
        },
        "miles": {
            "estimated_diameter_min": 0.0378360645,
            "estimated_diameter_max": 0.0846040122
        },
        "feet": {
            "estimated_diameter_min": 199.7744887109,
            "estimated_diameter_max": 446.7093369279
        }
    },
    "is_potentially_hazardous_asteroid": false,
    "close_approach_data": [
        {
            "close_approach_date": "2004-03-26",
            "close_approach_date_full": "2004-Mar-26 03:33",
            "epoch_date_close_approach": 1080271980000,
            "relative_velocity": {
                "kilometers_per_second": "13.9855630717",
                "kilometers_per_hour": "50348.027058179",
                "miles_per_hour": "31284.3060351224"
            },
            "miss_distance": {
                "astronomical": "0.016961316",
                "lunar": "6.597951924",
                "kilometers": "2537376.74599692",
                "miles": "1576652.799600696"
            },
            "orbiting_body": "Earth"
        },
        {
            "close_approach_date": "2069-07-28",
            "close_approach_date_full": "2069-Jul-28 22:49",
            "epoch_date_close_approach": 3142277340000,
            "relative_velocity": {
                "kilometers_per_second": "19.0044116003",
                "kilometers_per_hour": "68415.8817609058",
                "miles_per_hour": "42510.9683086028"
            },
            "miss_distance": {
                "astronomical": "0.2462215516",
                "lunar": "95.7801835724",
                "kilometers": "36834219.667455092",
                "miles": "22887722.7835485896"
            },
            "orbiting_body": "Earth"
        },
        {
            "close_approach_date": "2159-07-28",
            "close_approach_date_full": "2159-Jul-28 06:49",
            "epoch_date_close_approach": 5982274140000,
            "relative_velocity": {
                "kilometers_per_second": "16.9094505708",
                "kilometers_per_hour": "60874.022055011",
                "miles_per_hour": "37824.7499819039"
            },
            "miss_distance": {
                "astronomical": "0.1757037285",
                "lunar": "68.3487503865",
                "kilometers": "26284903.534658295",
                "miles": "16332681.699922671"
            },
            "orbiting_body": "Earth"
        }
    ],
    "orbital_data": {
        "orbit_id": "18",
        "orbit_determination_date": "2017-04-06 09:13:06",
        "first_observation_date": "2004-03-16",
        "last_observation_date": "2004-03-25",
        "data_arc_in_days": 9,
        "observations_used": 132,
        "orbit_uncertainty": "7",
        "minimum_orbit_intersection": ".0153749",
        "jupiter_tisserand_invariant": "3.466",
        "epoch_osculation": "2459000.5",
        "eccentricity": ".5936935746712035",
        "semi_major_axis": "2.122989753266804",
        "inclination": "9.16522030508651",
        "ascending_node_longitude": "179.7554510283738",
        "orbital_period": "1129.848657479572",
        "perihelion_distance": ".8625843776594988",
        "perihelion_argument": "56.57458153721799",
        "aphelion_distance": "3.383395128874109",
        "perihelion_time": "2458784.668151560132",
        "mean_anomaly": "68.76979932133726",
        "mean_motion": ".318626744933322",
        "equinox": "J2000",
        "orbit_class": {
            "orbit_class_type": "APO",
            "orbit_class_description": "Near-Earth asteroid orbits which cross the Earth’s orbit similar to that of 1862 Apollo",
            "orbit_class_range": "a (semi-major axis) > 1.0 AU; q (perihelion) < 1.017 AU"
        }
    },
    "is_sentry_object": false
}